{
  "type": "FeatureCollection",
  "features": [
    {
      "type": "Feature",
      "properties": {
        "norad_id": 36083,
        "name": "IRIDIUM 33 DEB",
        "group": "iridium-33-debris",
        "lat": 22.357885920319127,
        "lon": 32.77152131762735,
        "alt_km": 765.8978943400116,
        "timestamp": "2025-12-19T10:50:01.587113+00:00",
        "meta_object_name": "IRIDIUM 33 DEB",
        "meta_object_id": "1997-051VQ",
        "meta_epoch": "2025-12-16T21:09:41.480640",
        "meta_mean_motion": 14.43222397,
        "meta_eccentricity": 0.00256692,
        "meta_inclination": 86.3437,
        "meta_ra_of_asc_node": 32.3703,
        "meta_arg_of_pericenter": 208.6135,
        "meta_mean_anomaly": 151.3659,
        "meta_ephemeris_type": 0,
        "meta_classification_type": "U",
        "meta_norad_cat_id": 36083,
        "meta_element_set_no": 999,
        "meta_rev_at_epoch": 85509,
        "meta_bstar": 0.00040983827,
        "meta_mean_motion_dot": 1.403e-05,
        "meta_mean_motion_ddot": 0,
        "tle_line1": "1 36083U 97051VQ  25350.88173010  .00001403  00000+0  40984-3 0  9990",
        "tle_line2": "2 36083  86.3437  32.3703 0025669 208.6135 151.3659 14.43222397855098"
      },
      "geometry": {
        "type": "Point",
        "coordinates": [
          32.77152131762735,
          22.357885920319127
        ]
      }
    },
    {
      "type": "Feature",
      "properties": {
        "norad_id": 36390,
        "name": "IRIDIUM 33 DEB",
        "group": "iridium-33-debris",
        "lat": -35.71044763014345,
        "lon": 118.98845924134089,
        "alt_km": 650.475109436934,
        "timestamp": "2025-12-19T10:50:01.587136+00:00",
        "meta_object_name": "IRIDIUM 33 DEB",
        "meta_object_id": "1997-051VU",
        "meta_epoch": "2025-12-18T02:53:50.749728",
        "meta_mean_motion": 14.73679499,
        "meta_eccentricity": 0.00315796,
        "meta_inclination": 86.2911,
        "meta_ra_of_asc_node": 296.9257,
        "meta_arg_of_pericenter": 143.7695,
        "meta_mean_anomaly": 216.5671,
        "meta_ephemeris_type": 0,
        "meta_classification_type": "U",
        "meta_norad_cat_id": 36390,
        "meta_element_set_no": 999,
        "meta_rev_at_epoch": 66341,
        "meta_bstar": 0.00081895703,
        "meta_mean_motion_dot": 5.409e-05,
        "meta_mean_motion_ddot": 0,
        "tle_line1": "1 36390U 97051VU  25352.12072627  .00005409  00000+0  81896-3 0  9999",
        "tle_line2": "2 36390  86.2911 296.9257 0031579 143.7695 216.5671 14.73679499663417"
      },
      "geometry": {
        "type": "Point",
        "coordinates": [
          118.98845924134089,
          -35.71044763014345
        ]
      }
    },
    {
      "type": "Feature",
      "properties": {
        "norad_id": 36483,
        "name": "IRIDIUM 33 DEB",
        "group": "iridium-33-debris",
        "lat": -68.73607843522524,
        "lon": -121.01999486547822,
        "alt_km": 753.1074308885754,
        "timestamp": "2025-12-19T10:50:01.587149+00:00",
        "meta_object_name": "IRIDIUM 33 DEB",
        "meta_object_id": "1997-051VZ",
        "meta_epoch": "2025-12-16T21:53:24.442080",
        "meta_mean_motion": 14.45825155,
        "meta_eccentricity": 0.00113618,
        "meta_inclination": 86.3797,
        "meta_ra_of_asc_node": 50.7036,
        "meta_arg_of_pericenter": 114.4564,
        "meta_mean_anomaly": 245.7824,
        "meta_ephemeris_type": 0,
        "meta_classification_type": "U",
        "meta_norad_cat_id": 36483,
        "meta_element_set_no": 999,
        "meta_rev_at_epoch": 65206,
        "meta_bstar": 0.00037285473,
        "meta_mean_motion_dot": 1.343e-05,
        "meta_mean_motion_ddot": 0,
        "tle_line1": "1 36483U 97051VZ  25350.91208845  .00001343  00000+0  37285-3 0  9996",
        "tle_line2": "2 36483  86.3797  50.7036 0011361 114.4564 245.7824 14.45825155652065"
      },
      "geometry": {
        "type": "Point",
        "coordinates": [
          -121.01999486547822,
          -68.73607843522524
        ]
      }
    },
    {
      "type": "Feature",
      "properties": {
        "norad_id": 36490,
        "name": "IRIDIUM 33 DEB",
        "group": "iridium-33-debris",
        "lat": 19.42958170096469,
        "lon": -173.84856832253672,
        "alt_km": 641.383245325992,
        "timestamp": "2025-12-19T10:50:01.587160+00:00",
        "meta_object_name": "IRIDIUM 33 DEB",
        "meta_object_id": "1997-051WG",
        "meta_epoch": "2025-12-18T11:20:08.689920",
        "meta_mean_motion": 14.76311439,
        "meta_eccentricity": 0.00053494,
        "meta_inclination": 86.3653,
        "meta_ra_of_asc_node": 7.8778,
        "meta_arg_of_pericenter": 71.1072,
        "meta_mean_anomaly": 289.0726,
        "meta_ephemeris_type": 0,
        "meta_classification_type": "U",
        "meta_norad_cat_id": 36490,
        "meta_element_set_no": 999,
        "meta_rev_at_epoch": 86569,
        "meta_bstar": 0.0014032879,
        "meta_mean_motion_dot": 9.76e-05,
        "meta_mean_motion_ddot": 0,
        "tle_line1": "1 36490U 97051WG  25352.47232280  .00009760  00000+0  14033-2 0  9993",
        "tle_line2": "2 36490  86.3653   7.8778 0005349  71.1072 289.0726 14.76311439865698"
      },
      "geometry": {
        "type": "Point",
        "coordinates": [
          -173.84856832253672,
          19.42958170096469
        ]
      }
    },
    {
      "type": "Feature",
      "properties": {
        "norad_id": 36493,
        "name": "IRIDIUM 33 DEB",
        "group": "iridium-33-debris",
        "lat": 2.015585081766078,
        "lon": -171.429812969419,
        "alt_km": 685.3893999956299,
        "timestamp": "2025-12-19T10:50:01.587171+00:00",
        "meta_object_name": "IRIDIUM 33 DEB",
        "meta_object_id": "1997-051WK",
        "meta_epoch": "2025-12-17T18:41:22.418880",
        "meta_mean_motion": 14.65296376,
        "meta_eccentricity": 0.0009595,
        "meta_inclination": 86.357,
        "meta_ra_of_asc_node": 9.4417,
        "meta_arg_of_pericenter": 347.2295,
        "meta_mean_anomaly": 12.8673,
        "meta_ephemeris_type": 0,
        "meta_classification_type": "U",
        "meta_norad_cat_id": 36493,
        "meta_element_set_no": 999,
        "meta_rev_at_epoch": 74592,
        "meta_bstar": 0.00099210888,
        "meta_mean_motion_dot": 5.375e-05,
        "meta_mean_motion_ddot": 0,
        "tle_line1": "1 36493U 97051WK  25351.77873170  .00005375  00000+0  99211-3 0  9997",
        "tle_line2": "2 36493  86.3570   9.4417 0009595 347.2295  12.8673 14.65296376745924"
      },
      "geometry": {
        "type": "Point",
        "coordinates": [
          -171.429812969419,
          2.015585081766078
        ]
      }
    },
    {
      "type": "Feature",
      "properties": {
        "norad_id": 37548,
        "name": "IRIDIUM 33 DEB",
        "group": "iridium-33-debris",
        "lat": 28.10407021226638,
        "lon": 42.40096972439879,
        "alt_km": 733.7469873454838,
        "timestamp": "2025-12-19T10:50:01.587182+00:00",
        "meta_object_name": "IRIDIUM 33 DEB",
        "meta_object_id": "1997-051XH",
        "meta_epoch": "2025-12-15T20:39:30.861504",
        "meta_mean_motion": 14.51326297,
        "meta_eccentricity": 0.00258157,
        "meta_inclination": 86.3522,
        "meta_ra_of_asc_node": 42.0105,
        "meta_arg_of_pericenter": 178.4192,
        "meta_mean_anomaly": 181.71,
        "meta_ephemeris_type": 0,
        "meta_classification_type": "U",
        "meta_norad_cat_id": 37548,
        "meta_element_set_no": 999,
        "meta_rev_at_epoch": 65577,
        "meta_bstar": 0.00067405053,
        "meta_mean_motion_dot": 2.715e-05,
        "meta_mean_motion_ddot": 0,
        "tle_line1": "1 37548U 97051XH  25349.86077386  .00002715  00000+0  67405-3 0  9996",
        "tle_line2": "2 37548  86.3522  42.0105 0025815 178.4192 181.7100 14.51326297655778"
      },
      "geometry": {
        "type": "Point",
        "coordinates": [
          42.40096972439879,
          28.10407021226638
        ]
      }
    },
    {
      "type": "Feature",
      "properties": {
        "norad_id": 37550,
        "name": "IRIDIUM 33 DEB",
        "group": "iridium-33-debris",
        "lat": 86.13330925174674,
        "lon": 90.51143324448283,
        "alt_km": 658.2957866375727,
        "timestamp": "2025-12-19T10:50:01.587192+00:00",
        "meta_object_name": "IRIDIUM 33 DEB",
        "meta_object_id": "1997-051XK",
        "meta_epoch": "2025-12-18T19:42:03.261312",
        "meta_mean_motion": 14.67287716,
        "meta_eccentricity": 0.00056474,
        "meta_inclination": 86.3773,
        "meta_ra_of_asc_node": 21.1799,
        "meta_arg_of_pericenter": 97.8701,
        "meta_mean_anomaly": 262.3155,
        "meta_ephemeris_type": 0,
        "meta_classification_type": "U",
        "meta_norad_cat_id": 37550,
        "meta_element_set_no": 999,
        "meta_rev_at_epoch": 86422,
        "meta_bstar": 0.00091274276,
        "meta_mean_motion_dot": 5.169e-05,
        "meta_mean_motion_ddot": 0,
        "tle_line1": "1 37550U 97051XK  25352.82087108  .00005169  00000+0  91274-3 0  9999",
        "tle_line2": "2 37550  86.3773  21.1799 0005647  97.8701 262.3155 14.67287716864224"
      },
      "geometry": {
        "type": "Point",
        "coordinates": [
          90.51143324448283,
          86.13330925174674
        ]
      }
    }
  ]
}